GRBBETA                 
1 60237U 24128C   26115.78150279  .00004079  00000+0  28477-3 0  9999
2 60237  61.9913  40.0697 0047083 123.6270 236.9328 15.06204708 98371
OOV-CUBE (TUBSAT-30)    
1 60240U 24128F   26115.95071390  .00002800  00000+0  21995-3 0  9996
2 60240  61.9959  47.6812 0050542 122.2863 238.3140 15.02506942 98261
ROBUSTA-3A (MEDITERRAN*)
1 60243U 24128J   26115.93043358  .00010193  00000+0  60574-3 0  9990
2 60243  61.9879  32.9248 0047943 117.4274 243.1709 15.10842473 98523
LASARSAT                
1 62391U 24247Q   26115.59466234  .00028907  00000+0  64331-3 0  9999
2 62391  44.9748 197.0095 0005601 351.4217   8.6575 15.43162992 75189
CROCUBE                 
1 62394U 24247T   26115.58452624  .00032414  00000+0  68525-3 0  9996
2 62394  44.9720 195.1541 0005271 349.9838  10.0946 15.44630806 75208
FORESAIL-1 PRIME        
1 66778U 25276DS  26115.93661662  .00005906  00000+0  29196-3 0  9999
2 66778  97.4217 190.1786 0000869 312.3191  47.7970 15.18210006 22474
KNACKSAT-2              
1 67683U 98067XZ  26115.93505304  .00042262  00000+0  60658-3 0  9997
2 67683  51.6297 196.3967 0012347   4.2804 355.8290 15.55609093 12130
