[{"OBJECT_NAME":"GRBBETA","OBJECT_ID":"2024-128C","EPOCH":"2026-04-25T18:45:21.841056","MEAN_MOTION":15.06204708,"ECCENTRICITY":0.0047083,"INCLINATION":61.9913,"RA_OF_ASC_NODE":40.0697,"ARG_OF_PERICENTER":123.627,"MEAN_ANOMALY":236.9328,"EPHEMERIS_TYPE":0,"CLASSIFICATION_TYPE":"U","NORAD_CAT_ID":60237,"ELEMENT_SET_NO":999,"REV_AT_EPOCH":9837,"BSTAR":0.00028476905,"MEAN_MOTION_DOT":4.079e-5,"MEAN_MOTION_DDOT":0},{"OBJECT_NAME":"OOV-CUBE (TUBSAT-30)","OBJECT_ID":"2024-128F","EPOCH":"2026-04-25T22:49:01.680960","MEAN_MOTION":15.02506942,"ECCENTRICITY":0.00505424,"INCLINATION":61.9959,"RA_OF_ASC_NODE":47.6812,"ARG_OF_PERICENTER":122.2863,"MEAN_ANOMALY":238.314,"EPHEMERIS_TYPE":0,"CLASSIFICATION_TYPE":"U","NORAD_CAT_ID":60240,"ELEMENT_SET_NO":999,"REV_AT_EPOCH":9826,"BSTAR":0.00021994754,"MEAN_MOTION_DOT":2.8e-5,"MEAN_MOTION_DDOT":0},{"OBJECT_NAME":"ROBUSTA-3A (MEDITERRANEE)","OBJECT_ID":"2024-128J","EPOCH":"2026-04-25T22:19:49.461312","MEAN_MOTION":15.10842473,"ECCENTRICITY":0.00479434,"INCLINATION":61.9879,"RA_OF_ASC_NODE":32.9248,"ARG_OF_PERICENTER":117.4274,"MEAN_ANOMALY":243.1709,"EPHEMERIS_TYPE":0,"CLASSIFICATION_TYPE":"U","NORAD_CAT_ID":60243,"ELEMENT_SET_NO":999,"REV_AT_EPOCH":9852,"BSTAR":0.00060574266,"MEAN_MOTION_DOT":0.00010193,"MEAN_MOTION_DDOT":0},{"OBJECT_NAME":"LASARSAT","OBJECT_ID":"2024-247Q","EPOCH":"2026-04-25T14:16:18.826176","MEAN_MOTION":15.43162992,"ECCENTRICITY":0.00056016,"INCLINATION":44.9748,"RA_OF_ASC_NODE":197.0095,"ARG_OF_PERICENTER":351.4217,"MEAN_ANOMALY":8.6575,"EPHEMERIS_TYPE":0,"CLASSIFICATION_TYPE":"U","NORAD_CAT_ID":62391,"ELEMENT_SET_NO":999,"REV_AT_EPOCH":7518,"BSTAR":0.00064330581,"MEAN_MOTION_DOT":0.00028907,"MEAN_MOTION_DDOT":0},{"OBJECT_NAME":"CROCUBE","OBJECT_ID":"2024-247T","EPOCH":"2026-04-25T14:01:43.067136","MEAN_MOTION":15.44630806,"ECCENTRICITY":0.00052716,"INCLINATION":44.972,"RA_OF_ASC_NODE":195.1541,"ARG_OF_PERICENTER":349.9838,"MEAN_ANOMALY":10.0946,"EPHEMERIS_TYPE":0,"CLASSIFICATION_TYPE":"U","NORAD_CAT_ID":62394,"ELEMENT_SET_NO":999,"REV_AT_EPOCH":7520,"BSTAR":0.00068525214,"MEAN_MOTION_DOT":0.00032414,"MEAN_MOTION_DDOT":0},{"OBJECT_NAME":"FORESAIL-1 PRIME","OBJECT_ID":"2025-276DS","EPOCH":"2026-04-25T22:28:43.675968","MEAN_MOTION":15.18210006,"ECCENTRICITY":8.691e-5,"INCLINATION":97.4217,"RA_OF_ASC_NODE":190.1786,"ARG_OF_PERICENTER":312.3191,"MEAN_ANOMALY":47.797,"EPHEMERIS_TYPE":0,"CLASSIFICATION_TYPE":"U","NORAD_CAT_ID":66778,"ELEMENT_SET_NO":999,"REV_AT_EPOCH":2247,"BSTAR":0.00029195901,"MEAN_MOTION_DOT":5.906e-5,"MEAN_MOTION_DDOT":0},{"OBJECT_NAME":"KNACKSAT-2","OBJECT_ID":"1998-067XZ","EPOCH":"2026-04-25T22:26:28.582656","MEAN_MOTION":15.55609093,"ECCENTRICITY":0.0012347,"INCLINATION":51.6297,"RA_OF_ASC_NODE":196.3967,"ARG_OF_PERICENTER":4.2804,"MEAN_ANOMALY":355.829,"EPHEMERIS_TYPE":0,"CLASSIFICATION_TYPE":"U","NORAD_CAT_ID":67683,"ELEMENT_SET_NO":999,"REV_AT_EPOCH":1213,"BSTAR":0.00060657939,"MEAN_MOTION_DOT":0.00042262,"MEAN_MOTION_DDOT":0}]
